
SDX02                   
1 62460U 24253B   25023.60603701  .00028075  00000+0  89363-3 0  9992
2 62460  54.9981 151.0421 0010758   0.4245 359.6788 15.32375070  2456
POEM-4                  
1 62461U 24253C   25023.60747130  .00122325  00000+0  75531-3 0  9993
2 62461  55.2210 141.4362 0007639 347.0569  13.0282 15.76300274  3763
STARLINK-11518 [DTC]    
1 62462U 24254A   25023.57922305  .00031208  00000+0  18135-3 0  9996
2 62462  42.9978 177.4926 0002173 281.9214  78.1412 15.77878725  4887
STARLINK-11455 [DTC]    
1 62463U 24254B   25023.58334491 -.00004681  00000+0 -24050-4 0  9992
2 62463  42.9991 177.3288 0001589 266.0082 173.0115 15.77854772  4904
STARLINK-11459 [DTC]    
1 62464U 24254C   25023.57434232  .00000180  00000+0  39034-5 0  9993
2 62464  42.9983 177.4527 0001756 275.8632  84.2038 15.77855834  4860
STARLINK-11178 [DTC]    
1 62465U 24254D   25023.58334491 -.00011831  00000+0 -65199-4 0  9998
2 62465  42.9992 177.2594 0001550 271.8020 194.9673 15.77859883  4752
STARLINK-11506 [DTC]    
1 62466U 24254E   25023.58334491 -.00006775  00000+0 -36089-4 0  9996
2 62466  42.9973 177.1888 0001594 266.2466 228.2651 15.77860780  4752
STARLINK-11486 [DTC]    
1 62467U 24254F   25023.58334491 -.00067188  00000+0 -38589-3 0  9998
2 62467  42.9954 177.1192 0002386 251.4848 270.7892 15.77874225  4905
STARLINK-11511 [DTC]    
1 62468U 24254G   25023.58334491 -.01114590  00000+0 -63980-2 0  9992
2 62468  42.9933 177.0598 0001514 274.8131 270.8047 15.80283387  4908
STARLINK-11505 [DTC]    
1 62469U 24254H   25023.54846930 -.00454833  00000+0 -21376-2 0  9994
2 62469  42.9927 177.2406 0003266 288.7444  71.3073 15.83298193  4861
STARLINK-11497 [DTC]    
1 62470U 24254J   25023.54779314  .00029644  00000+0  12771-3 0  9993
2 62470  42.9922 177.2323 0002283 261.8105  98.2509 15.84391864  4873
STARLINK-11477 [DTC]    
1 62471U 24254K   25023.54742736 -.00005222  00000+0 -19819-4 0  9991
2 62471  42.9930 177.2291 0002703 283.5781  76.4790 15.84382038  4867
STARLINK-11500 [DTC]    
1 62472U 24254L   25023.54706865  .00024042  00000+0  10418-3 0  9999
2 62472  42.9933 177.2263 0002100 258.8432 101.2205 15.84372947  4348
STARLINK-11464 [DTC]    
1 62473U 24254M   25023.54671113  .00056395  00000+0  24089-3 0  9992
2 62473  42.9923 177.2224 0001930 263.1697  96.8956 15.84324227  4875
STARLINK-11502 [DTC]    
1 62474U 24254N   25023.54632340  .00053052  00000+0  22571-3 0  9993
2 62474  42.9917 177.2183 0001339 276.7746  83.2975 15.84429061  4874
STARLINK-32657          
1 62475U 24254P   25023.58334491 -.01569769  00000+0 -21885-1 0  9999
2 62475  42.9994 177.9590 0001417 274.0614 271.7595 15.59295759  4757
STARLINK-32734          
1 62476U 24254Q   25023.58334491 -.01564834  00000+0 -21810-1 0  9996
2 62476  42.9994 177.9534 0001294 277.5041 270.2341 15.59293908  4905
STARLINK-32733          
1 62477U 24254R   25023.58334491 -.01564733  00000+0 -21809-1 0  9993
2 62477  42.9993 177.9494 0001264 278.0345 271.6211 15.59293507  4906
STARLINK-32707          
1 62478U 24254S   25023.58334491 -.01563613  00000+0 -21792-1 0  9991
2 62478  42.9994 177.9383 0001270 276.5426 276.9474 15.59292731  4902
STARLINK-32705          
1 62479U 24254T   25023.58334491 -.01570621  00000+0 -21898-1 0  9996
2 62479  42.9994 177.9344 0001369 274.6133 280.7913 15.59296709  4756
STARLINK-32743          
1 62480U 24254U   25023.58334491 -.01564038  00000+0 -21798-1 0  9992
2 62480  42.9993 177.9437 0001295 276.7916 274.7808 15.59293300  4907
STARLINK-32753          
1 62481U 24254V   25023.58334491 -.01564592  00000+0 -21806-1 0  9998
2 62481  42.9994 177.9291 0001296 275.6737 281.6486 15.59294116  4902
STARLINK-32699          
1 62482U 24254W   25023.58334491 -.01569517  00000+0 -21881-1 0  9994
2 62482  42.9994 177.9245 0001395 274.2358 285.0030 15.59296009  4755
THURAYA-4               
1 62483U 25001A   25021.75000000 -.00000297  00000+0  00000+0 0  9990
2 62483  20.3998 318.6966 7658322 181.7701 306.5259  1.26418201    19
SHIJIAN-25 (SJ-25)      
1 62485U 25002A   25023.60138351 -.00000355  00000+0  00000+0 0  9995
2 62485  10.2255  43.6238 0056374 183.5195 232.5992  1.00275092   261
STARLINK-32713          
1 62487U 25003A   25023.58334491 -.01303426  00000+0 -13494-1 0  9998
2 62487  43.0007  91.7380 0001412 287.2366  84.3799 15.66725476  3735
STARLINK-32732          
1 62488U 25003B   25023.58334491 -.01303939  00000+0 -13500-1 0  9996
2 62488  43.0006  91.7323 0001362 287.4355  86.0983 15.66725879  3737
STARLINK-32328          
1 62489U 25003C   25023.58334491 -.01304414  00000+0 -13504-1 0  9990
2 62489  43.0006  91.7226 0001562 286.3235  91.0441 15.66726639  3894
STARLINK-32332          
1 62490U 25003D   25023.58334491 -.01305266  00000+0 -13515-1 0  9990
2 62490  43.0007  91.7276 0001350 285.4355  90.0156 15.66726720  3893
STARLINK-32717          
1 62491U 25003E   25023.58334491 -.01303698  00000+0 -13497-1 0  9997
2 62491  43.0006  91.7174 0001416 286.8247  92.4607 15.66725732  3897
STARLINK-32757          
1 62492U 25003F   25023.58334491 -.01304317  00000+0 -13504-1 0  9996
2 62492  43.0006  91.7126 0001396 286.4010  94.8012 15.66726253  3734
STARLINK-32731          
1 62493U 25003G   25023.58334491 -.01304682  00000+0 -13508-1 0  9996
2 62493  43.0007  91.7029 0001403 286.6149  98.4211 15.66726617  3894
STARLINK-32694          
1 62494U 25003H   25023.58334491 -.01305222  00000+0 -13514-1 0  9995
2 62494  43.0006  91.7078 0001391 286.2191  96.8994 15.66727203  3899
STARLINK-32708          
1 62495U 25003J   25023.58334491 -.01305479  00000+0 -13517-1 0  9993
2 62495  43.0006  91.6980 0001370 285.8908 101.0619 15.66727386  3782
STARLINK-32718          
1 62496U 25003K   25023.58334491 -.01304772  00000+0 -13509-1 0  9990
2 62496  43.0006  91.6935 0001373 288.6195 100.2495 15.66726968  3738
STARLINK-32729          
1 62497U 25003L   25023.58334491 -.01303268  00000+0 -13492-1 0  9991
2 62497  43.0006  91.6879 0001429 286.9035 103.8842 15.66725611  3898
STARLINK-32739          
1 62498U 25003M   25023.58334491 -.01303048  00000+0 -13490-1 0  9996
2 62498  43.0006  91.6829 0001354 287.0511 105.6540 15.66725348  3849
STARLINK-32714          
1 62499U 25003N   25023.58334491 -.01305859  00000+0 -13521-1 0  9994
2 62499  43.0006  91.6779 0001366 286.9619 107.6581 15.66728153  3893
STARLINK-32685          
1 62500U 25003P   25023.58334491 -.01303977  00000+0 -13500-1 0  9993
2 62500  43.0007  91.6731 0001393 287.6113 108.9270 15.66726377  3842
STARLINK-32691          
1 62501U 25003Q   25023.58334491 -.01302956  00000+0 -13489-1 0  9996
2 62501  43.0006  91.6679 0001345 287.7282 110.7280 15.66725304  3894
STARLINK-32788          
1 62502U 25003R   25023.58334491 -.01306122  00000+0 -13524-1 0  9996
2 62502  43.0006  91.6625 0001545 282.9714 117.4040 15.66726491  3622
STARLINK-32768          
1 62503U 25003S   25023.58334491 -.01304597  00000+0 -13507-1 0  9992
2 62503  43.0006  91.6580 0001380 287.1446 115.1448 15.66726859  3781
STARLINK-32792          
1 62504U 25003T   25023.58334491 -.01305606  00000+0 -13518-1 0  9997
2 62504  43.0004  91.6528 0001379 288.1751 116.0300 15.66728150  3738
STARLINK-32725          
1 62505U 25003U   25023.58334491 -.01598227  00000+0 -13076-1 0  9990
2 62505  43.0008  91.2695 0001146 286.0988 271.8396 15.72455304  3780
STARLINK-32681          
1 62506U 25003V   25023.58334491 -.00262759  00000+0 -13448-2 0  9992
2 62506  42.9989  90.0532 0001244 277.9270  40.7670 15.81017930  3895
STARLINK-32679          
1 62507U 25003W   25023.58334491 -.01323131  00000+0 -10172-1 0  9996
2 62507  43.0007  91.0939 0000970 280.8322 347.0085 15.73818835  3894
STARLINK-32749          
1 62508U 25003X   25023.58334491 -.01305611  00000+0 -13518-1 0  9997
2 62508  43.0005  91.6434 0001401 287.7860 120.2535 15.66728034  3784
STARLINK-32744          
1 62509U 25003Y   25023.58334491 -.01306516  00000+0 -13528-1 0  9994
2 62509  43.0005  91.6383 0001415 289.2136 120.7418 15.66728805  3787
STARLINK-32701          
1 62510U 25003Z   25023.58334491 -.01306154  00000+0 -13524-1 0  9990
2 62510  43.0004  91.6341 0001390 288.3422 123.5308 15.66728681  3783
STARLINK-11452 [DTC]    
1 62511U 25004A   25023.58334491 -.00074948  00000+0 -42987-3 0  9991
2 62511  43.0030  24.7961 0000855 265.9408 194.4861 15.77947337  3614
STARLINK-11443 [DTC]    
1 62512U 25004B   25023.58334491 -.01110029  00000+0 -66954-2 0  9993
2 62512  43.0058  24.7298 0001703 279.1338 207.7998 15.79198777  3617
STARLINK-11440 [DTC]    
1 62513U 25004C   25023.58334491 -.01080383  00000+0 -58339-2 0  9991
2 62513  43.0066  24.6829 0001775 278.1847 227.5260 15.81514825  3610
STARLINK-11514 [DTC]    
1 62514U 25004D   25023.42977449 -.00044054  00000+0 -18621-3 0  9996
2 62514  43.0066  25.5976 0001904 269.9433  90.1222 15.84314447  2664
STARLINK-11508 [DTC]    
1 62515U 25004E   25023.42888183  .00077150  00000+0  32638-3 0  9998
2 62515  43.0061  25.5902 0001680 317.5762  42.4981 15.84422314  2660
STARLINK-11510 [DTC]    
1 62516U 25004F   25023.42821801  .00005074  00000+0  23853-4 0  9999
2 62516  43.0058  25.5841 0001449 257.7814 102.2896 15.84407970  2666
STARLINK-11512 [DTC]    
1 62517U 25004G   25023.42742497  .00062998  00000+0  26791-3 0  9994
2 62517  43.0065  25.5782 0001825 265.5072  94.5592 15.84380067  2663
STARLINK-11450 [DTC]    
1 62518U 25004H   25023.42665760  .00148020  00000+0  62012-3 0  9999
2 62518  43.0062  25.5722 0001027 275.3248  84.7508 15.84384889  2667
STARLINK-11507 [DTC]    
1 62519U 25004J   25023.42566621  .00002731  00000+0  13936-4 0  9996
2 62519  43.0068  25.5636 0001668 275.1987  84.8695 15.84398721  2665
